{
    "links": {
        "self": "http://www.neowsapp.com/rest/v1/neo/3092343?api_key=iIulBulltgU6a56xZRHN4H3l9WmuAYTsLGpBGhQ2"
    },
    "id": "3092343",
    "neo_reference_id": "3092343",
    "name": "(2001 SD286)",
    "designation": "2001 SD286",
    "nasa_jpl_url": "http://ssd.jpl.nasa.gov/sbdb.cgi?sstr=3092343",
    "absolute_magnitude_h": 25.3,
    "estimated_diameter": {
        "kilometers": {
            "estimated_diameter_min": 0.0231502122,
            "estimated_diameter_max": 0.0517654482
        },
        "meters": {
            "estimated_diameter_min": 23.150212221,
            "estimated_diameter_max": 51.7654482198
        },
        "miles": {
            "estimated_diameter_min": 0.0143848705,
            "estimated_diameter_max": 0.0321655483
        },
        "feet": {
            "estimated_diameter_min": 75.9521422633,
            "estimated_diameter_max": 169.8341531374
        }
    },
    "is_potentially_hazardous_asteroid": false,
    "close_approach_data": [
        {
            "close_approach_date": "2001-09-22",
            "close_approach_date_full": "2001-Sep-22 01:32",
            "epoch_date_close_approach": 1001122320000,
            "relative_velocity": {
                "kilometers_per_second": "12.7497181133",
                "kilometers_per_hour": "45898.9852078638",
                "miles_per_hour": "28519.8444476307"
            },
            "miss_distance": {
                "astronomical": "0.0204384853",
                "lunar": "7.9505707817",
                "kilometers": "3057553.866906311",
                "miles": "1899875.8744806518"
            },
            "orbiting_body": "Earth"
        },
        {
            "close_approach_date": "2182-06-08",
            "close_approach_date_full": "2182-Jun-08 13:02",
            "epoch_date_close_approach": 6703822920000,
            "relative_velocity": {
                "kilometers_per_second": "15.5579862713",
                "kilometers_per_hour": "56008.7505768578",
                "miles_per_hour": "34801.6594903815"
            },
            "miss_distance": {
                "astronomical": "0.1732541391",
                "lunar": "67.3958601099",
                "kilometers": "25918450.178043717",
                "miles": "16104978.1428766146"
            },
            "orbiting_body": "Earth"
        }
    ],
    "orbital_data": {
        "orbit_id": "9",
        "orbit_determination_date": "2017-04-06 09:16:03",
        "first_observation_date": "2001-09-24",
        "last_observation_date": "2001-09-29",
        "data_arc_in_days": 5,
        "observations_used": 18,
        "orbit_uncertainty": "9",
        "minimum_orbit_intersection": ".011159",
        "jupiter_tisserand_invariant": "3.534",
        "epoch_osculation": "2452179.5",
        "eccentricity": ".5660830084009373",
        "semi_major_axis": "2.084481287020964",
        "inclination": "6.237579887282455",
        "ascending_node_longitude": "182.5831873232133",
        "orbital_period": "1099.247351495831",
        "perihelion_distance": ".904491849108679",
        "perihelion_argument": "130.1881215894742",
        "aphelion_distance": "3.264470724933248",
        "perihelion_time": "2452140.313631841550",
        "mean_anomaly": "12.83341053116515",
        "mean_motion": ".3274968090758826",
        "equinox": "J2000",
        "orbit_class": {
            "orbit_class_type": "APO",
            "orbit_class_description": "Near-Earth asteroid orbits which cross the Earth’s orbit similar to that of 1862 Apollo",
            "orbit_class_range": "a (semi-major axis) > 1.0 AU; q (perihelion) < 1.017 AU"
        }
    },
    "is_sentry_object": false
}